PROBA-1                 
1 26958U 01049B   26162.95924390  .00002254  00000+0  14802-3 0  9992
2 26958  97.9606 171.3085 0055827 139.3872 221.1540 15.07475272342839
CUTE-1 (CO-55)          
1 27844U 03031E   26162.97931317  .00000243  00000+0  12418-3 0  9996
2 27844  98.6735 171.6035 0009162 193.3973 166.6964 14.24332546190935
CUBESAT XI-IV (CO-57)   
1 27848U 03031J   26162.96515925  .00000209  00000+0  11102-3 0  9993
2 27848  98.6768 171.3067 0008710 213.1482 146.9152 14.23618048190631
APRIZESAT 4             
1 35684U 09041D   26162.79507679  .00000558  00000+0  73264-4 0  9990
2 35684  98.1411 238.0079 0042776 340.8204  19.1397 14.83872183910564
APRIZESAT 3             
1 35686U 09041F   26162.94956931  .00001208  00000+0  10875-3 0  9999
2 35686  98.2053 315.9229 0062750  84.5891 276.2483 14.96224893915592
PROBA-2                 
1 36037U 09059B   26162.94475288  .00000160  00000+0  47889-4 0  9992
2 36037  98.2450 346.3703 0012104 300.0303  59.9693 14.54860175880763
APRIZESAT 5             
1 37792U 11044E   26162.80518888  .00000966  00000+0  12916-3 0  9993
2 37792  98.2455  95.6931 0052767  21.4986 338.8425 14.81064166797994
APRIZESAT 6             
1 37793U 11044F   26162.72565476  .00000610  00000+0  93238-4 0  9993
2 37793  98.2370  73.1137 0044441 102.9795 311.9870 14.76907722796345
PROBA-V                 
1 39159U 13021A   26162.91808134  .00000058  00000+0  43411-4 0  9994
2 39159  98.3582 141.7849 0004935 135.9926 224.1647 14.23595922680365
APRIZESAT 7             
1 39416U 13066A   26162.85419509  .00000725  00000+0  77272-4 0  9999
2 39416  97.7708 116.1509 0034607 227.3675 132.4625 14.91552666680437
APRIZESAT 8             
1 39425U 13066K   26162.82780161  .00000858  00000+0  98865-4 0  9999
2 39425  97.8220 110.3705 0044648 304.7478  54.9538 14.87642384678876
BUGSAT-1 (TITA)         
1 40014U 14033E   26162.95239762  .00003777  00000+0  20150-3 0  9994
2 40014  98.0420 255.1951 0027565 196.3549 163.6795 15.15524001655045
SAUDISAT 4              
1 40016U 14033G   26162.91136576  .00000584  00000+0  83552-4 0  9990
2 40016  97.7576 309.2288 0046247  90.6197 270.0314 14.79537531645299
APRIZESAT 9             
1 40018U 14033J   26162.91339530  .00000548  00000+0  88078-4 0  9995
2 40018  97.9053 296.2411 0065326 216.2810 143.3961 14.74207294642789
APRIZESAT 10            
1 40019U 14033K   26162.88854263  .00000334  00000+0  60592-4 0  9991
2 40019  97.9643 289.9663 0077492 291.0624  68.2308 14.70877814641476
TECHDEMOSAT-1 (TDS-1)   
1 40076U 14037H   26162.93475249  .00007420  00000+0  42191-3 0  9994
2 40076  98.3805 154.6269 0004653 290.2755  69.7973 15.13214425647436
TECHNOSAT               
1 42829U 17042E   26162.93009998  .00003362  00000+0  24073-3 0  9995
2 42829  97.4264 320.7886 0018776 110.8283 249.4957 15.04922841485918
FLYING LAPTOP           
1 42831U 17042G   26162.98616994  .00002592  00000+0  20619-3 0  9999
2 42831  97.4661 318.7203 0019336 138.5659 221.7036 15.01110967485678
HAWK-A                  
1 43765U 18099H   26162.96626327  .00005908  00000+0  23900-3 0  9998
2 43765  97.3921 215.2700 0033280 305.2362  54.5762 15.24581487412306
HAWK-B                  
1 43794U 18099AN  26162.71874162  .00005088  00000+0  21816-3 0  9998
2 43794  97.3970 214.4522 0030852 325.0216  34.8993 15.22765563412208
HAWK-C                  
1 43799U 18099AT  26162.69265791  .00007162  00000+0  25896-3 0  9999
2 43799  97.3897 215.8853 0038936 306.0553  53.7081 15.28026567413071
SALSAT                  
1 46495U 20068K   26162.97803982  .00007008  00000+0  24606-3 0  9992
2 46495  97.8848 165.7257 0008496 329.8396  30.2352 15.29724756314566
HAWK-2C                 
1 47502U 21006CT  26162.67508386  .00005997  00000+0  18116-3 0  9996
2 47502  97.2284 207.0949 0006041 205.9188 154.1754 15.34596780298652
HAWK-2A                 
1 47505U 21006CW  26162.67763035  .00006006  00000+0  18136-3 0  9997
2 47505  97.2327 207.7720 0005475 209.3865 150.7071 15.34611747298652
HAWK-2B                 
1 47508U 21006CZ  26162.67346685  .00006753  00000+0  20307-3 0  9990
2 47508  97.2196 206.1085 0006036 207.6038 152.4886 15.34691149298650
HAWK-3B                 
1 48931U 21059BE  26162.84067397  .00043484  00000+0  37547-3 0  9994
2 48931  97.6666 359.0457 0003593 357.3304   2.7937 15.69117753277015
HAWK-3C                 
1 48948U 21059BX  26162.90413209  .00044289  00000+0  38230-3 0  9990
2 48948  97.6788   4.7920 0003921 357.9615   2.1629 15.69119919277022
HAWK-3A                 
1 48957U 21059CG  26162.84025561  .00044285  00000+0  38227-3 0  9995
2 48957  97.6728   1.9309 0004042   0.4555 359.6709 15.69118749277012
HAWK-5C                 
1 52754U 22057Y   26162.94830455  .00017485  00000+0  30030-3 0  9997
2 52754  97.6584 322.2790 0005298  98.2943 261.8909 15.51208754225538
HAWK-5B                 
1 52756U 22057AA  26162.94815621  .00017354  00000+0  29802-3 0  9997
2 52756  97.6592 320.6276 0005935  91.3520 268.8412 15.51208900225532
